STARLINK-30606          
1 58109U 23161N   26068.50714761 -.00001291  00000+0 -31483-4 0  9996
2 58109  53.1624 166.3794 0001300  71.7277 288.3865 15.30181359134393
HYPERFIELD-1A           
1 60562U 24149CY  26068.76488211  .00008569  00000+0  30052-3 0  9998
2 60562  97.3842 149.5066 0003865 313.7844  46.3076 15.29681349 86836
